ONEWEB-0113             
1 48050U 21025J   21341.37083587  .00000176  00000+0  44581-3 0  9997
2 48050  87.8961 288.5964 0002052  77.0634 283.0724 13.13471946 36617
ONEWEB-0112             
1 48051U 21025K   21341.58814645 -.00000188  00000+0 -55034-3 0  9998
2 48051  87.8851 288.5732 0001921  76.8925 283.2418 13.13472890 36658
ONEWEB-0156             
1 48052U 21025L   21341.36859444  .00000122  00000+0  29881-3 0  9998
2 48052  87.8966 288.5645 0001822  78.5036 281.6297 13.13469356 36606
ONEWEB-0161             
1 48053U 21025M   21341.34169760 -.00000230  00000+0 -66536-3 0  9992
2 48053  87.8901 288.6127 0001834  73.6278 286.5052 13.13470579 36533
ONEWEB-0158             
1 48054U 21025N   21341.61055997  .00000336  00000+0  88519-3 0  9999
2 48054  87.8960 288.5460 0002203  78.5755 281.5622 13.13471746 36695
ONEWEB-0157             
1 48055U 21025P   21341.55678808  .00000139  00000+0  34443-3 0  9993
2 48055  87.8936 288.5579 0001381  76.2487 283.8796 13.13467093 36623
ONEWEB-0162             
1 48056U 21025Q   21341.59488094 -.00000017  00000+0 -82838-4 0  9993
2 48056  87.8879 288.5453 0001787  83.9039 276.2293 13.13469530 36603
ONEWEB-0155             
1 48057U 21025R   21341.61731096  .00000670  00000+0  17999-2 0  9997
2 48057  87.8918 288.5457 0001928  72.5105 287.6234 13.13470470 36748
ONEWEB-0149             
1 48058U 21025S   21341.56128389  .00000041  00000+0  77580-4 0  9993
2 48058  87.8957 288.5245 0001701 100.4811 259.6510 13.13466930 36541
ONEWEB-0148             
1 48059U 21025T   21341.83013399  .00000059  00000+0  12573-3 0  9997
2 48059  87.8926 288.4878 0001196 108.5517 251.5742 13.13472013 36704
ONEWEB-0160             
1 48060U 21025U   21341.61954798  .00000512  00000+0  13659-2 0  9991
2 48060  87.8907 288.5530 0003200  81.1801 278.9690 13.13469648 36627
ONEWEB-0163             
1 48061U 21025V   21341.60384546  .00000183  00000+0  46571-3 0  9993
2 48061  87.8973 288.5553 0001157  68.2206 291.9046 13.13472263 36740
ONEWEB-0159             
1 48062U 21025W   21341.82108817 -.00000129  00000+0 -38928-3 0  9992
2 48062  87.8951 288.4344 0001046  83.0077 277.1171 13.13466945 36691
ONEWEB-0164             
1 48063U 21025X   21341.42236506 -.00000320  00000+0 -91230-3 0  9994
2 48063  87.8983 288.5931 0002046  69.1360 290.9988 13.13470137 36621
ONEWEB-0167             
1 48064U 21025Y   21341.83460831 -.00000136  00000+0 -40684-3 0  9992
2 48064  87.8936 288.4990 0001356  77.3363 282.7917 13.13469570 36665
ONEWEB-0166             
1 48065U 21025Z   21341.55008009  .00000311  00000+0  81657-3 0  9995
2 48065  87.8849 288.5890 0001601  75.5996 284.5311 13.13468722 36705
ONEWEB-0151             
1 48066U 21025AA  21341.55232078  .00000242  00000+0  62854-3 0  9992
2 48066  87.8949 288.5497 0002059  66.6117 293.5228 13.13469085 36647
ONEWEB-0170             
1 48067U 21025AB  21341.55903003  .00000076  00000+0  17395-3 0  9991
2 48067  87.8979 288.5622 0002729  60.4361 299.7040 13.13466986 36601
ONEWEB-0168             
1 48068U 21025AC  21341.62178675  .00000341  00000+0  90013-3 0  9992
2 48068  87.8961 288.5436 0001659  77.1856 282.9459 13.13471544 36627
ONEWEB-0173             
1 48069U 21025AD  21341.84358599  .00000284  00000+0  74196-3 0  9992
2 48069  87.8963 288.5055 0001467  59.0833 301.0440 13.13471263 36898
ONEWEB-0171             
1 48070U 21025AE  21341.42012665 -.00000244  00000+0 -70315-3 0  9996
2 48070  87.8893 288.5709 0001584  82.7112 277.4197 13.13467929 36654
ONEWEB-0172             
1 48071U 21025AF  21341.83416053 -.00000975  00000+0 -27420-2 0  9990
2 48071  87.8941 288.5740 0001199  92.8140 267.3126 13.12566727 37600
ONEWEB-0174             
1 48072U 21025AG  21341.61280238  .00000331  00000+0  87047-3 0  9997
2 48072  87.8907 288.5433 0001270 108.4628 251.6639 13.13472212 36898
ONEWEB-0175             
1 48073U 21025AH  21341.56352914 -.00000034  00000+0 -12890-3 0  9999
2 48073  87.8867 288.6109 0002339  65.3393 294.7979 13.13467577 36547
ONEWEB-0177             
1 48074U 21025AJ  21341.42459192 -.00000441  00000+0 -12423-2 0  9994
2 48074  87.8973 288.5821 0001129  56.2080 303.9156 13.13469878 36719
ONEWEB-0178             
1 48075U 21025AK  21341.82124768 -.00000144  00000+0 -43018-3 0  9992
2 48075  87.8904 288.4942 0001506  68.5573 291.5716 13.13470680 36817
ONEWEB-0108             
1 48076U 21025AL  21341.55456533  .00000197  00000+0  50473-3 0  9990
2 48076  87.8946 288.5577 0002044  91.0447 269.0916 13.13467535 36703
ONEWEB-0169             
1 48077U 21025AM  21341.58592217 -.00000173  00000+0 -50885-3 0  9997
2 48077  87.8977 288.5594 0001819  89.1112 271.0225 13.13469918 35367
ONEWEB-0176             
1 48210U 21031A   21341.50884664 -.00000399  00000+0 -11106-2 0  9997
2 48210  87.9062 258.1441 0001502  68.1685 291.9605 13.14502054 31197
ONEWEB-0184             
1 48211U 21031B   21341.48350573 -.00000050  00000+0 -17013-3 0  9990
2 48211  87.8956 258.2080 0002801  46.2386 313.8975 13.14500242 31165
ONEWEB-0179             
1 48212U 21031C   21341.75625023  .00000152  00000+0  37586-3 0  9994
2 48212  87.8960 258.1437 0001263  67.1986 292.9277 13.14503351 31240
ONEWEB-0180             
1 48213U 21031D   21341.48559372 -.00000459  00000+0 -12733-2 0  9996
2 48213  87.8953 258.2091 0001384  72.2842 287.8438 13.14501396 31094
ONEWEB-0218             
1 48214U 21031E   21341.50676729 -.00000109  00000+0 -32897-3 0  9992
2 48214  87.8942 258.1883 0002460  34.2499 325.8789 13.14508192 31254
ONEWEB-0209             
1 48215U 21031F   21341.49618332 -.00000204  00000+0 -58492-3 0  9992
2 48215  87.8970 258.1998 0001550  71.6564 288.4734 13.14499905 31255
ONEWEB-0198             
1 48216U 21031G   21341.48136551 -.00000659  00000+0 -18131-2 0  9999
2 48216  87.9030 258.1804 0001438  37.3221 322.8008 13.14507102 31362
ONEWEB-0189             
1 48217U 21031H   21341.49407160 -.00000167  00000+0 -48565-3 0  9997
2 48217  87.8954 258.1914 0001664  44.7280 315.3984 13.14502916 31107
ONEWEB-0196             
1 48218U 21031J   21341.47291682  .00000068  00000+0  14962-3 0  9998
2 48218  87.8984 258.1849 0001728  63.8763 296.2544 13.14498341 31102
ONEWEB-0183             
1 48219U 21031K   21341.52154179  .00000204  00000+0  51646-3 0  9996
2 48219  87.8975 258.1816 0001484  74.8131 285.3162 13.14504328 31206
ONEWEB-0185             
1 48220U 21031L   21341.47503732 -.00000658  00000+0 -18103-2 0  9990
2 48220  87.8973 258.2039 0001130  71.3835 288.7417 13.14507225 31125
ONEWEB-0187             
1 48221U 21031M   21341.52578955  .00000198  00000+0  49877-3 0  9996
2 48221  87.8972 258.1894 0001468  73.7953 286.3339 13.14505165 31144
ONEWEB-0192             
1 48222U 21031N   21341.49829321 -.00002318  00000+0 -62886-2 0  9991
2 48222  87.8961 258.1800 0001649  62.4789 297.6508 13.14512254 31053
ONEWEB-0219             
1 48223U 21031P   21341.47927922  .00001074  00000+0  28633-2 0  9994
2 48223  87.8958 258.1835 0001654  66.5528 293.5776 13.14495298 31252
ONEWEB-0202             
1 48224U 21031Q   21341.53424184  .00000252  00000+0  64641-3 0  9991
2 48224  87.8975 258.1873 0001990  30.1966 329.9278 13.14503559 31240
ONEWEB-0204             
1 48225U 21031R   21341.51944644  .00000200  00000+0  50367-3 0  9991
2 48225  87.8991 258.1732 0002151  92.0769 268.0607 13.14504997 31135
ONEWEB-0205             
1 48226U 21031S   21341.54480904  .00000155  00000+0  38459-3 0  9996
2 48226  87.8974 258.1740 0002812  52.3959 307.7426 13.14499334 31150
ONEWEB-0206             
1 48227U 21031T   21341.51732854  .00000102  00000+0  24185-3 0  9991
2 48227  87.8943 258.1844 0001266  78.8095 281.3177 13.14502531 31107
ONEWEB-0182             
1 48228U 21031U   21341.51098336  .00000026  00000+0  34643-4 0  9998
2 48228  87.8989 258.1923 0001351  72.5740 287.5537 13.14500234 31318
ONEWEB-0186             
1 48229U 21031V   21341.52366741  .00000320  00000+0  82998-3 0  9990
2 48229  87.8959 258.1801 0001408  59.8131 300.3138 13.14499354 31272
ONEWEB-0181             
1 48230U 21031W   21341.50041537 -.00000128  00000+0 -38015-3 0  9992
2 48230  87.9061 258.1217 0001747  70.7823 289.3495 13.14500052 31119
ONEWEB-0188             
1 48231U 21031X   21341.54057955  .00000269  00000+0  69142-3 0  9997
2 48231  87.8981 258.1931 0001432  70.9001 289.2284 13.14504958 31028
ONEWEB-0220             
1 48232U 21031Y   21341.50252659 -.00000053  00000+0 -17784-3 0  9990
2 48232  87.8957 258.1789 0001207  57.6723 302.4523 13.14499242 31287
ONEWEB-0165             
1 48233U 21031Z   21341.53212101  .00000247  00000+0  63224-3 0  9995
2 48233  87.8972 258.1952 0001329  62.0194 298.1070 13.14500106 31240
ONEWEB-0199             
1 48234U 21031AA  21341.51521646  .00000012  00000+0 -12201-5 0  9993
2 48234  87.8961 258.2004 0001521  66.3987 293.7302 13.14503991 31142
ONEWEB-0203             
1 48235U 21031AB  21341.50464138 -.00000087  00000+0 -26951-3 0  9993
2 48235  87.9116 258.1346 0002278  64.5982 295.5384 13.14503987 31155
ONEWEB-0197             
1 48236U 21031AC  21341.49195263 -.00000161  00000+0 -46961-3 0  9998
2 48236  87.8969 258.1973 0001637  67.8560 292.2743 13.14504522 31062
ONEWEB-0194             
1 48237U 21031AD  21341.76470126  .00000253  00000+0  64757-3 0  9996
2 48237  87.8963 258.1470 0002295  72.4418 287.6963 13.14499980 31270
ONEWEB-0193             
1 48238U 21031AE  21341.47716332  .00000222  00000+0  56537-3 0  9990
2 48238  87.8973 258.1954 0001880  62.5157 297.6163 13.14503212 31185
ONEWEB-0191             
1 48239U 21031AF  21341.48772303 -.00000096  00000+0 -29299-3 0  9998
2 48239  87.8958 258.2108 0001949  68.1130 292.0207 13.14504021 31042
ONEWEB-0195             
1 48240U 21031AG  21341.54270267  .00000145  00000+0  35742-3 0  9992
2 48240  87.8962 258.1810 0001510  46.2779 313.8475 13.14503161 31030
